[{"OBJECT_NAME":"CELTEE 1","OBJECT_ID":"2016-067C","EPOCH":"2026-03-09T13:12:53.800416","MEAN_MOTION":15.18591912,"ECCENTRICITY":9.481e-5,"INCLINATION":98.0813,"RA_OF_ASC_NODE":288.3139,"ARG_OF_PERICENTER":135.7027,"MEAN_ANOMALY":224.4281,"EPHEMERIS_TYPE":0,"CLASSIFICATION_TYPE":"U","NORAD_CAT_ID":41850,"ELEMENT_SET_NO":999,"REV_AT_EPOCH":51075,"BSTAR":0.00037655769,"MEAN_MOTION_DOT":7.714e-5,"MEAN_MOTION_DDOT":0},{"OBJECT_NAME":"SL-24 R\/B","OBJECT_ID":"2007-026B","EPOCH":"2026-03-09T22:40:02.756640","MEAN_MOTION":14.45860602,"ECCENTRICITY":0.0332074,"INCLINATION":97.4507,"RA_OF_ASC_NODE":51.0844,"ARG_OF_PERICENTER":307.0569,"MEAN_ANOMALY":107.0995,"EPHEMERIS_TYPE":0,"CLASSIFICATION_TYPE":"U","NORAD_CAT_ID":31699,"ELEMENT_SET_NO":999,"REV_AT_EPOCH":98518,"BSTAR":0.00024180062,"MEAN_MOTION_DOT":1.655e-5,"MEAN_MOTION_DDOT":0}]
